{
  "type": "FeatureCollection",
  "features": [
    {
      "type": "Feature",
      "properties": {
        "norad_id": 45807,
        "name": "BEIDOU-3 G3 (C61)",
        "group": "gnss",
        "lat": 1.796799328923549,
        "lon": -176.05928153003876,
        "alt_km": 35813.72149248627,
        "timestamp": "2025-12-23T22:42:33.227839+00:00",
        "meta_object_name": "BEIDOU-3 G3 (C61)",
        "meta_object_id": "2020-040A",
        "meta_epoch": "2025-12-23T06:48:37.677024",
        "meta_mean_motion": 1.00268803,
        "meta_eccentricity": 0.00065635,
        "meta_inclination": 2.0151,
        "meta_ra_of_asc_node": 66.6726,
        "meta_arg_of_pericenter": 309.252,
        "meta_mean_anomaly": 288.8631,
        "meta_ephemeris_type": 0,
        "meta_classification_type": "U",
        "meta_norad_cat_id": 45807,
        "meta_element_set_no": 999,
        "meta_rev_at_epoch": 2030,
        "meta_bstar": 0,
        "meta_mean_motion_dot": -3.33e-06,
        "meta_mean_motion_ddot": 0,
        "tle_line1": "1 45807U 20040A   25357.28376941 -.00000333  00000+0  00000+0 0  9990",
        "tle_line2": "2 45807   2.0151  66.6726 0006563 309.2520 288.8631  1.00268803 20308"
      },
      "geometry": {
        "type": "Point",
        "coordinates": [
          -176.05928153003876,
          1.796799328923549
        ]
      }
    },
    {
      "type": "Feature",
      "properties": {
        "norad_id": 45854,
        "name": "GPS BIII-3  (PRN 23)",
        "group": "gnss",
        "lat": 20.283717739513257,
        "lon": -158.36686357708317,
        "alt_km": 20072.553174241384,
        "timestamp": "2025-12-23T22:42:33.227851+00:00",
        "meta_object_name": "GPS BIII-3  (PRN 23)",
        "meta_object_id": "2020-041A",
        "meta_epoch": "2025-12-23T05:38:15.042912",
        "meta_mean_motion": 2.00561767,
        "meta_eccentricity": 0.00606523,
        "meta_inclination": 56.5539,
        "meta_ra_of_asc_node": 35.7774,
        "meta_arg_of_pericenter": 203.7074,
        "meta_mean_anomaly": 158.6734,
        "meta_ephemeris_type": 0,
        "meta_classification_type": "U",
        "meta_norad_cat_id": 45854,
        "meta_element_set_no": 999,
        "meta_rev_at_epoch": 4051,
        "meta_bstar": 0,
        "meta_mean_motion_dot": -5e-07,
        "meta_mean_motion_ddot": 0,
        "tle_line1": "1 45854U 20041A   25357.23489633 -.00000050  00000+0  00000+0 0  9997",
        "tle_line2": "2 45854  56.5539  35.7774 0060652 203.7074 158.6734  2.00561767 40514"
      },
      "geometry": {
        "type": "Point",
        "coordinates": [
          -158.36686357708317,
          20.283717739513257
        ]
      }
    },
    {
      "type": "Feature",
      "properties": {
        "norad_id": 46114,
        "name": "GALAXY 30 (WAAS/PRN 135)",
        "group": "gnss",
        "lat": -0.03814049640048811,
        "lon": -51.62536171408296,
        "alt_km": 35780.04367329963,
        "timestamp": "2025-12-23T22:42:33.227864+00:00",
        "meta_object_name": "GALAXY 30 (WAAS/PRN 135)",
        "meta_object_id": "2020-056C",
        "meta_epoch": "2025-12-23T03:38:39.356160",
        "meta_mean_motion": 1.00270214,
        "meta_eccentricity": 0.00020157,
        "meta_inclination": 0.0188,
        "meta_ra_of_asc_node": 12.6466,
        "meta_arg_of_pericenter": 254.5213,
        "meta_mean_anomaly": 114.4446,
        "meta_ephemeris_type": 0,
        "meta_classification_type": "U",
        "meta_norad_cat_id": 46114,
        "meta_element_set_no": 999,
        "meta_rev_at_epoch": 1952,
        "meta_bstar": 0,
        "meta_mean_motion_dot": 5.8e-07,
        "meta_mean_motion_ddot": 0,
        "tle_line1": "1 46114U 20056C   25357.15184440  .00000058  00000+0  00000+0 0  9999",
        "tle_line2": "2 46114   0.0188  12.6466 0002015 254.5213 114.4446  1.00270214 19528"
      },
      "geometry": {
        "type": "Point",
        "coordinates": [
          -51.62536171408296,
          -0.03814049640048811
        ]
      }
    },
    {
      "type": "Feature",
      "properties": {
        "norad_id": 46805,
        "name": "COSMOS 2547 (705K)",
        "group": "gnss",
        "lat": 25.257691298883707,
        "lon": -148.71020032681992,
        "alt_km": 19141.938158389232,
        "timestamp": "2025-12-23T22:42:33.227876+00:00",
        "meta_object_name": "COSMOS 2547 (705K)",
        "meta_object_id": "2020-075A",
        "meta_epoch": "2025-12-22T23:18:06.854688",
        "meta_mean_motion": 2.13100221,
        "meta_eccentricity": 0.00061066,
        "meta_inclination": 64.5968,
        "meta_ra_of_asc_node": 198.3547,
        "meta_arg_of_pericenter": 227.5279,
        "meta_mean_anomaly": 132.4843,
        "meta_ephemeris_type": 0,
        "meta_classification_type": "U",
        "meta_norad_cat_id": 46805,
        "meta_element_set_no": 999,
        "meta_rev_at_epoch": 4015,
        "meta_bstar": 0,
        "meta_mean_motion_dot": 9.5e-07,
        "meta_mean_motion_ddot": 0,
        "tle_line1": "1 46805U 20075A   25356.97091267  .00000095  00000+0  00000+0 0  9991",
        "tle_line2": "2 46805  64.5968 198.3547 0006106 227.5279 132.4843  2.13100221 40154"
      },
      "geometry": {
        "type": "Point",
        "coordinates": [
          -148.71020032681992,
          25.257691298883707
        ]
      }
    },
    {
      "type": "Feature",
      "properties": {
        "norad_id": 46826,
        "name": "GPS BIII-4  (PRN 14)",
        "group": "gnss",
        "lat": 40.56098844209197,
        "lon": -0.5582900715235619,
        "alt_km": 20137.599388776314,
        "timestamp": "2025-12-23T22:42:33.227887+00:00",
        "meta_object_name": "GPS BIII-4  (PRN 14)",
        "meta_object_id": "2020-078A",
        "meta_epoch": "2025-12-16T01:06:13.902336",
        "meta_mean_motion": 2.00566891,
        "meta_eccentricity": 0.0064755,
        "meta_inclination": 54.0145,
        "meta_ra_of_asc_node": 218.2068,
        "meta_arg_of_pericenter": 203.3828,
        "meta_mean_anomaly": 339.3936,
        "meta_ephemeris_type": 0,
        "meta_classification_type": "U",
        "meta_norad_cat_id": 46826,
        "meta_element_set_no": 999,
        "meta_rev_at_epoch": 3783,
        "meta_bstar": 0,
        "meta_mean_motion_dot": 6.7e-07,
        "meta_mean_motion_ddot": 0,
        "tle_line1": "1 46826U 20078A   25350.04599424  .00000067  00000+0  00000+0 0  9996",
        "tle_line2": "2 46826  54.0145 218.2068 0064755 203.3828 339.3936  2.00566891 37831"
      },
      "geometry": {
        "type": "Point",
        "coordinates": [
          -0.5582900715235619,
          40.56098844209197
        ]
      }
    },
    {
      "type": "Feature",
      "properties": {
        "norad_id": 48859,
        "name": "GPS BIII-5  (PRN 11)",
        "group": "gnss",
        "lat": -37.43505872255803,
        "lon": -52.59785254109927,
        "alt_km": 20174.334923118968,
        "timestamp": "2025-12-23T22:42:33.227898+00:00",
        "meta_object_name": "GPS BIII-5  (PRN 11)",
        "meta_object_id": "2021-054A",
        "meta_epoch": "2025-12-08T04:14:32.423424",
        "meta_mean_motion": 2.00553627,
        "meta_eccentricity": 0.0024678,
        "meta_inclination": 55.2581,
        "meta_ra_of_asc_node": 340.1367,
        "meta_arg_of_pericenter": 233.3993,
        "meta_mean_anomaly": 212.8594,
        "meta_ephemeris_type": 0,
        "meta_classification_type": "U",
        "meta_norad_cat_id": 48859,
        "meta_element_set_no": 999,
        "meta_rev_at_epoch": 3292,
        "meta_bstar": 0,
        "meta_mean_motion_dot": -8.6e-07,
        "meta_mean_motion_ddot": 0,
        "tle_line1": "1 48859U 21054A   25342.17676416 -.00000086  00000+0  00000+0 0  9993",
        "tle_line2": "2 48859  55.2581 340.1367 0024678 233.3993 212.8594  2.00553627 32922"
      },
      "geometry": {
        "type": "Point",
        "coordinates": [
          -52.59785254109927,
          -37.43505872255803
        ]
      }
    },
    {
      "type": "Feature",
      "properties": {
        "norad_id": 49336,
        "name": "QZS-1R (QZSS/PRN 196)",
        "group": "gnss",
        "lat": 31.24136455370489,
        "lon": -151.0276527171436,
        "alt_km": 38498.530834697245,
        "timestamp": "2025-12-23T22:42:33.227909+00:00",
        "meta_object_name": "QZS-1R (QZSS/PRN 196)",
        "meta_object_id": "2021-096A",
        "meta_epoch": "2025-12-22T13:50:43.015200",
        "meta_mean_motion": 1.00254287,
        "meta_eccentricity": 0.07571253,
        "meta_inclination": 37.0967,
        "meta_ra_of_asc_node": 82.2147,
        "meta_arg_of_pericenter": 271.501,
        "meta_mean_anomaly": 79.4971,
        "meta_ephemeris_type": 0,
        "meta_classification_type": "U",
        "meta_norad_cat_id": 49336,
        "meta_element_set_no": 999,
        "meta_rev_at_epoch": 1523,
        "meta_bstar": 0,
        "meta_mean_motion_dot": -2.47e-06,
        "meta_mean_motion_ddot": 0,
        "tle_line1": "1 49336U 21096A   25356.57688675 -.00000247  00000+0  00000+0 0  9998",
        "tle_line2": "2 49336  37.0967  82.2147 0757125 271.5010  79.4971  1.00254287 15233"
      },
      "geometry": {
        "type": "Point",
        "coordinates": [
          -151.0276527171436,
          31.24136455370489
        ]
      }
    }
  ]
}